METEOSAT-12 (MTG-I1)    
1 54743U 22170C   24134.15396510 -.00000012  00000+0  00000+0 0  9991
2 54743   0.4603  33.1989 0001581  25.4355 227.8290  1.00267957  5305
SHIJIAN-23 (SJ-23)      
1 55131U 23002A   24133.93729917  .00000037  00000+0  00000+0 0  9990
2 55131   1.7432  88.1560 0001425 332.4647 213.4305  1.00065372  4830
USA 340                 
1 55138U 22144E   24123.73427541 -.00000151  00000+0  00000+0 0  9996
2 55138   3.6792  65.9589 0001256  42.4473 115.4363  0.99551404  4016
USA 342                 
1 55263U 23008A   24133.18938418  .00000134  00000+0  00000+0 0  9995
2 55263   0.0165 318.8390 0000043  93.6376 270.1709  1.00271023  4846
LDPE-3A                 
1 55264U 23008B   24134.17618753 -.00000218  00000+0  00000+0 0  9997
2 55264   1.1581  87.8303 0001063  30.8496 137.8694  1.00625802  4139
ELEKTRO-L 4             
1 55506U 23016A   24132.90022573 -.00000063  00000+0  00000+0 0  9991
2 55506   0.1589  91.3756 0001353 178.1420  90.4636  1.00271169  4641
AMAZONAS NEXUS          
1 55508U 23017A   24130.43832598 -.00000284  00000+0  00000+0 0  9991
2 55508   0.0330 318.7323 0003994  50.7319 315.0680  1.00272161  4555
CHINASAT 26 (ZX 26)     
1 55686U 23023A   24133.99285535 -.00000358  00000+0  00000+0 0  9994
2 55686   0.0708  83.1279 0003408 347.5447 283.1208  1.00269806  4567
LUCH-5X (OLYMP-K 2)     
1 55841U 23031A   24133.01229801  .00000029  00000+0  00000+0 0  9997
2 55841   0.0591  61.1095 0001492   8.9678 169.3827  1.00275969  4252
GAOFEN-13 02            
1 55912U 23036A   24133.79216310 -.00000237  00000+0  00000+0 0  9999
2 55912   2.0980 305.0608 0003622 320.8763  37.0034  1.00271780  4419
SES-18                  
1 55970U 23038A   24133.41938508 -.00000105  00000+0  00000+0 0  9998
2 55970   0.0163 279.9368 0000995  50.2211 308.3960  1.00271290  4427
SES-19                  
1 55971U 23038B   24134.24808340  .00000084  00000+0  00000+0 0  9996
2 55971   0.0097 317.4624 0001502  82.6972 145.7331  1.00270145  4417
INTELSAT 40E (IS-40E)   
1 56174U 23052A   24132.58729785 -.00000178  00000+0  00000+0 0  9993
2 56174   0.0057 260.5726 0000815 190.8755 258.8309  1.00271096  4144
VIASAT-3                
1 56370U 23060A   24133.58070194 -.00000190  00000+0  00000+0 0  9998
2 56370   0.0134 284.8828 0000417 100.8438 325.2702  1.00271981  3763
ARCTURUS                
1 56371U 23060B   24134.02063236 -.00000120  00000+0  00000+0 0  9991
2 56371   0.7956  88.8777 0001435  43.8978 183.9332  1.00271648  3784
GS-1                    
1 56372U 23060C   24128.73487207 -.00000220  00000+0  00000+0 0  9992
2 56372   0.7346  88.0635 0035112  38.6783  99.5532  0.99997396  3717
BEIDOU-3 G4             
1 56564U 23066A   24134.55844459 -.00000116  00000+0  00000+0 0  9998
2 56564   2.2085 288.2289 0004543 193.1602 111.5260  1.00271973  3731
ARABSAT-7B (BADR-8)     
1 56757U 23075A   24127.93729667  .00000144  00000+0  00000+0 0  9999
2 56757   0.0793  29.9915 0005395 342.0215 216.6760  1.00272216  3401
IRNSS-1J (NVS-01)       
1 56759U 23076A   24134.26299178 -.00000342  00000+0  00000+0 0  9996
2 56759   4.0862 266.9694 0004576  27.1317 161.6167  1.00275523  3533
NUSANTARA TIGA (SATRIA) 
1 57045U 23086A   24133.79216310 -.00000240  00000+0  00000+0 0  9997
2 57045   0.0375 323.3212 0004581  19.2703 319.6191  1.00266677  2089
H2SAT (HEINRICH HERTZ)  
1 57213U 23093A   24133.85813326 -.00000004  00000+0  00000+0 0  9997
2 57213   0.0124 234.8998 0001014 303.5931   2.0238  1.00272836  3243
SYRACUSE 4B             
1 57214U 23093B   24133.85813326 -.00000059  00000+0  00000+0 0  9998
2 57214   0.0159 269.1148 0000158 331.6974 292.6154  1.00272228  3943
JUPITER 3 (ECHOSTAR 24) 
1 57479U 23108A   24132.62587345 -.00000154  00000+0  00000+0 0  9997
2 57479   0.0120 308.3301 0001291 119.1237 292.5573  1.00271732  2965
GALAXY 37 (G-37)        
1 57493U 23112A   24133.60396608  .00000044  00000+0  00000+0 0  9994
2 57493   0.0242  28.0168 0001689  13.5853 279.6781  1.00271131  2864
LUDI TANCE-4 01A        
1 57624U 23120A   24134.19493758 -.00000190  00000+0  00000+0 0  9991
2 57624  15.7808 212.5678 0003048 179.2184 359.5035  1.00269218  2868
TJS-10                  
1 58204U 23169A   24133.82331632  .00000001  00000+0  00000+0 0  9990
2 58204   0.5600  88.6695 0006903 276.7333 335.4112  1.00275969  1866
CHINASAT 6E (ZX 6E)     
1 58253U 23172A   24133.83938299 -.00000366  00000+0  00000+0 0  9996
2 58253   0.0135 290.7616 0003486 151.5660 206.4275  1.00270034  1981
YAOGAN-41               
1 58582U 23197A   24134.11228479 -.00000369  00000+0  00000+0 0  9995
2 58582   4.6757 307.7405 0017988 170.2467 277.0791  1.00271421  1647
INSAT-3DS               
1 58990U 24033A   24133.84494014 -.00000169  00000+0  00000+0 0  9995
2 58990   0.1096  90.7918 0011357 357.7722 169.7236  1.00271343   615
MERAH PUTIH 2           
1 58995U 24035A   24133.83938299 -.00000362  00000+0  00000+0 0  9994
2 58995   0.0042 310.1111 0001049  88.6195 247.4979  1.00271454   953
TJS-11                  
1 59020U 24037A   24133.96405576 -.00000377  00000+0  00000+0 0  9993
2 59020   5.3908 321.2678 0004116 155.8924 221.4176  1.00271040   916
HULIANWAN GAOGUI-01 (H*)
1 59069U 24040A   24133.92618744  .00000152  00000+0  00000+0 0  9999
2 59069   0.0518  88.8829 0003202 311.6160 197.7720  1.00273060   601
